GEOSCAN 3 (RS92S3)      
1 64893U 25155T   26160.50199328  .00015719  00000+0  46271-3 0  9995
2 64893  97.4532 130.2907 0005570 185.4864 174.6319 15.35138341 79671
INNOSAT 3 (RS92S0)      
1 64894U 25155U   26160.53338122  .00034072  00000+0  76499-3 0  9994
2 64894  97.4482 131.8490 0005120 170.8140 189.3202 15.43288753 79784
KNACKSAT-2              
1 67683U 98067XZ  26160.21299138  .00044471  00000+0  55732-3 0  9994
2 67683  51.6310 334.5675 0010139 180.3402 179.7586 15.59248117 19032
